[{"OBJECT_NAME":"ATLAS CENTAUR 2","OBJECT_ID":"1963-047A","EPOCH":"2026-04-01T04:00:26.494848","MEAN_MOTION":14.12162045,"ECCENTRICITY":0.0547357,"INCLINATION":30.3579,"RA_OF_ASC_NODE":70.0171,"ARG_OF_PERICENTER":278.3926,"MEAN_ANOMALY":75.5014,"EPHEMERIS_TYPE":0,"CLASSIFICATION_TYPE":"U","NORAD_CAT_ID":694,"ELEMENT_SET_NO":999,"REV_AT_EPOCH":13480,"BSTAR":0.00032925,"MEAN_MOTION_DOT":2.806e-5,"MEAN_MOTION_DDOT":0},{"OBJECT_NAME":"THOR AGENA D R/B","OBJECT_ID":"1964-002A","EPOCH":"2026-03-31T23:44:22.191936","MEAN_MOTION":14.34032111,"ECCENTRICITY":0.0032721,"INCLINATION":99.1211,"RA_OF_ASC_NODE":105.5416,"ARG_OF_PERICENTER":191.8605,"MEAN_ANOMALY":168.181,"EPHEMERIS_TYPE":0,"CLASSIFICATION_TYPE":"U","NORAD_CAT_ID":733,"ELEMENT_SET_NO":999,"REV_AT_EPOCH":24149,"BSTAR":0.00011094,"MEAN_MOTION_DOT":2.63e-6,"MEAN_MOTION_DDOT":0},{"OBJECT_NAME":"SL-3 R/B","OBJECT_ID":"1964-053B","EPOCH":"2026-03-31T22:23:20.870016","MEAN_MOTION":14.61383767,"ECCENTRICITY":0.00805091,"INCLINATION":65.0756,"RA_OF_ASC_NODE":266.0218,"ARG_OF_PERICENTER":285.231,"MEAN_ANOMALY":73.9899,"EPHEMERIS_TYPE":0,"CLASSIFICATION_TYPE":"U","NORAD_CAT_ID":877,"ELEMENT_SET_NO":999,"REV_AT_EPOCH":27004,"BSTAR":8.164632e-5,"MEAN_MOTION_DOT":2.97e-6,"MEAN_MOTION_DDOT":0},{"OBJECT_NAME":"SL-8 R/B","OBJECT_ID":"1967-045B","EPOCH":"2026-04-01T01:34:24.059136","MEAN_MOTION":14.45640117,"ECCENTRICITY":0.0064973,"INCLINATION":74.0107,"RA_OF_ASC_NODE":306.3017,"ARG_OF_PERICENTER":307.6419,"MEAN_ANOMALY":51.8853,"EPHEMERIS_TYPE":0,"CLASSIFICATION_TYPE":"U","NORAD_CAT_ID":2802,"ELEMENT_SET_NO":999,"REV_AT_EPOCH":9225,"BSTAR":0.00010854,"MEAN_MOTION_DOT":3.65e-6,"MEAN_MOTION_DDOT":0},{"OBJECT_NAME":"SL-8 R/B","OBJECT_ID":"1968-040B","EPOCH":"2026-03-31T22:28:36.197184","MEAN_MOTION":15.03411344,"ECCENTRICITY":0.00233325,"INCLINATION":74.0288,"RA_OF_ASC_NODE":268.2281,"ARG_OF_PERICENTER":83.0337,"MEAN_ANOMALY":277.3504,"EPHEMERIS_TYPE":0,"CLASSIFICATION_TYPE":"U","NORAD_CAT_ID":3230,"ELEMENT_SET_NO":999,"REV_AT_EPOCH":9335,"BSTAR":0.00031397302,"MEAN_MOTION_DOT":4.256e-5,"MEAN_MOTION_DDOT":0},{"OBJECT_NAME":"OAO 2","OBJECT_ID":"1968-110A","EPOCH":"2026-04-01T03:14:20.142240","MEAN_MOTION":14.47320707,"ECCENTRICITY":0.000545,"INCLINATION":34.9922,"RA_OF_ASC_NODE":139.9017,"ARG_OF_PERICENTER":11.7075,"MEAN_ANOMALY":348.3741,"EPHEMERIS_TYPE":0,"CLASSIFICATION_TYPE":"U","NORAD_CAT_ID":3597,"ELEMENT_SET_NO":999,"REV_AT_EPOCH":2235,"BSTAR":9.2037e-5,"MEAN_MOTION_DOT":3.23e-6,"MEAN_MOTION_DDOT":0},{"OBJECT_NAME":"ISIS 1","OBJECT_ID":"1969-009A","EPOCH":"2026-04-01T04:46:24.234240","MEAN_MOTION":11.30419834,"ECCENTRICITY":0.1707826,"INCLINATION":88.4499,"RA_OF_ASC_NODE":152.8515,"ARG_OF_PERICENTER":43.7561,"MEAN_ANOMALY":328.6771,"EPHEMERIS_TYPE":0,"CLASSIFICATION_TYPE":"U","NORAD_CAT_ID":3669,"ELEMENT_SET_NO":999,"REV_AT_EPOCH":35107,"BSTAR":9.0545e-5,"MEAN_MOTION_DOT":1.45e-6,"MEAN_MOTION_DDOT":0},{"OBJECT_NAME":"SERT 2","OBJECT_ID":"1970-009A","EPOCH":"2026-04-01T01:46:15.705696","MEAN_MOTION":13.58731915,"ECCENTRICITY":0.0005705,"INCLINATION":99.279,"RA_OF_ASC_NODE":32.946,"ARG_OF_PERICENTER":104.4724,"MEAN_ANOMALY":266.6509,"EPHEMERIS_TYPE":0,"CLASSIFICATION_TYPE":"U","NORAD_CAT_ID":4327,"ELEMENT_SET_NO":999,"REV_AT_EPOCH":78293,"BSTAR":6.1283e-5,"MEAN_MOTION_DOT":4.0e-8,"MEAN_MOTION_DDOT":0},{"OBJECT_NAME":"SL-3 R/B","OBJECT_ID":"1971-028B","EPOCH":"2026-04-01T04:54:02.479104","MEAN_MOTION":15.63176389,"ECCENTRICITY":0.0014857,"INCLINATION":81.2379,"RA_OF_ASC_NODE":24.183,"ARG_OF_PERICENTER":193.1506,"MEAN_ANOMALY":166.9363,"EPHEMERIS_TYPE":0,"CLASSIFICATION_TYPE":"U","NORAD_CAT_ID":5118,"ELEMENT_SET_NO":999,"REV_AT_EPOCH":99218,"BSTAR":0.00050182,"MEAN_MOTION_DOT":0.00046256,"MEAN_MOTION_DDOT":0},{"OBJECT_NAME":"ASTEX 1","OBJECT_ID":"1971-089A","EPOCH":"2026-04-01T04:04:06.855456","MEAN_MOTION":14.50792321,"ECCENTRICITY":0.0015983,"INCLINATION":92.7087,"RA_OF_ASC_NODE":159.0248,"ARG_OF_PERICENTER":17.3545,"MEAN_ANOMALY":342.8204,"EPHEMERIS_TYPE":0,"CLASSIFICATION_TYPE":"U","NORAD_CAT_ID":5560,"ELEMENT_SET_NO":999,"REV_AT_EPOCH":86556,"BSTAR":0.00013121,"MEAN_MOTION_DOT":5.16e-6,"MEAN_MOTION_DDOT":0},{"OBJECT_NAME":"SL-8 R/B","OBJECT_ID":"1971-119B","EPOCH":"2026-04-01T04:43:21.461088","MEAN_MOTION":14.38282564,"ECCENTRICITY":0.0546251,"INCLINATION":73.885,"RA_OF_ASC_NODE":133.6366,"ARG_OF_PERICENTER":95.4988,"MEAN_ANOMALY":270.8699,"EPHEMERIS_TYPE":0,"CLASSIFICATION_TYPE":"U","NORAD_CAT_ID":5730,"ELEMENT_SET_NO":999,"REV_AT_EPOCH":65872,"BSTAR":0.00035506,"MEAN_MOTION_DOT":6.776e-5,"MEAN_MOTION_DDOT":0},{"OBJECT_NAME":"OAO 3 (COPERNICUS)","OBJECT_ID":"1972-065A","EPOCH":"2026-04-01T05:29:58.181568","MEAN_MOTION":14.60015778,"ECCENTRICITY":0.0006876,"INCLINATION":35.0046,"RA_OF_ASC_NODE":168.8953,"ARG_OF_PERICENTER":340.2128,"MEAN_ANOMALY":49.3101,"EPHEMERIS_TYPE":0,"CLASSIFICATION_TYPE":"U","NORAD_CAT_ID":6153,"ELEMENT_SET_NO":999,"REV_AT_EPOCH":84949,"BSTAR":7.7587e-5,"MEAN_MOTION_DOT":3.57e-6,"MEAN_MOTION_DDOT":0},{"OBJECT_NAME":"ATLAS CENTAUR R/B","OBJECT_ID":"1972-065B","EPOCH":"2026-03-31T22:08:09.104640","MEAN_MOTION":14.77752121,"ECCENTRICITY":0.00336649,"INCLINATION":35.0007,"RA_OF_ASC_NODE":175.454,"ARG_OF_PERICENTER":198.4007,"MEAN_ANOMALY":161.5477,"EPHEMERIS_TYPE":0,"CLASSIFICATION_TYPE":"U","NORAD_CAT_ID":6155,"ELEMENT_SET_NO":999,"REV_AT_EPOCH":84455,"BSTAR":0.00023785019,"MEAN_MOTION_DOT":1.728e-5,"MEAN_MOTION_DDOT":0},{"OBJECT_NAME":"SL-8 R/B","OBJECT_ID":"1975-112B","EPOCH":"2026-04-01T02:38:01.689792","MEAN_MOTION":14.38216594,"ECCENTRICITY":0.0014617,"INCLINATION":74.0626,"RA_OF_ASC_NODE":337.6728,"ARG_OF_PERICENTER":61.7232,"MEAN_ANOMALY":298.5395,"EPHEMERIS_TYPE":0,"CLASSIFICATION_TYPE":"U","NORAD_CAT_ID":8459,"ELEMENT_SET_NO":999,"REV_AT_EPOCH":63509,"BSTAR":0.00010066,"MEAN_MOTION_DOT":2.8e-6,"MEAN_MOTION_DDOT":0},{"OBJECT_NAME":"SL-3 R/B","OBJECT_ID":"1977-057B","EPOCH":"2026-04-01T04:21:07.310304","MEAN_MOTION":15.4614776,"ECCENTRICITY":0.0006958,"INCLINATION":97.5795,"RA_OF_ASC_NODE":264.1073,"ARG_OF_PERICENTER":193.0531,"MEAN_ANOMALY":167.0539,"EPHEMERIS_TYPE":0,"CLASSIFICATION_TYPE":"U","NORAD_CAT_ID":10114,"ELEMENT_SET_NO":999,"REV_AT_EPOCH":67180,"BSTAR":0.00028978,"MEAN_MOTION_DOT":0.00014132,"MEAN_MOTION_DDOT":0},{"OBJECT_NAME":"SEASAT 1","OBJECT_ID":"1978-064A","EPOCH":"2026-04-01T04:25:37.388928","MEAN_MOTION":14.4617885,"ECCENTRICITY":0.000269,"INCLINATION":108.007,"RA_OF_ASC_NODE":172.6982,"ARG_OF_PERICENTER":274.6274,"MEAN_ANOMALY":85.4565,"EPHEMERIS_TYPE":0,"CLASSIFICATION_TYPE":"U","NORAD_CAT_ID":10967,"ELEMENT_SET_NO":999,"REV_AT_EPOCH":50976,"BSTAR":0.00012049,"MEAN_MOTION_DOT":2.94e-6,"MEAN_MOTION_DDOT":0},{"OBJECT_NAME":"SL-14 R/B","OBJECT_ID":"1979-011B","EPOCH":"2026-04-01T01:10:05.901888","MEAN_MOTION":14.91938565,"ECCENTRICITY":0.0015636,"INCLINATION":82.5214,"RA_OF_ASC_NODE":75.3474,"ARG_OF_PERICENTER":348.7501,"MEAN_ANOMALY":11.3367,"EPHEMERIS_TYPE":0,"CLASSIFICATION_TYPE":"U","NORAD_CAT_ID":11267,"ELEMENT_SET_NO":999,"REV_AT_EPOCH":53211,"BSTAR":8.9324e-5,"MEAN_MOTION_DOT":9.31e-6,"MEAN_MOTION_DDOT":0}]
