{"fetched_at":"2026-04-01T13:19:51Z","count":4527,"tles":[{"name":"ASTEX 1","line1":"1 05560U 71089A   26091.16952379  .00000516  00000+0  13121-3 0  9993","line2":"2 05560  92.7087 159.0248 0015983  17.3545 342.8204 14.50792321865568","category":"Other"},{"name":"ISIS 1","line1":"1 03669U 69009A   26091.19889160  .00000145  00000+0  90545-4 0  9994","line2":"2 03669  88.4499 152.8515 1707826  43.7561 328.6771 11.30419834351076","category":"Other"},{"name":"SL-3 R/B","line1":"1 00877U 64053B   26090.93288043  .00000297  00000+0  81646-4 0  9990","line2":"2 00877  65.0756 266.0218 0080509 285.2310  73.9899 14.61383767270045","category":"Other"},{"name":"SL-3 R/B","line1":"1 05118U 71028B   26091.20419536  .00046256  00000+0  50182-3 0  9992","line2":"2 05118  81.2379  24.1830 0014857 193.1506 166.9363 15.63176389992187","category":"Other"},{"name":"SL-14 R/B","line1":"1 11267U 79011B   26091.04867942  .00000931  00000+0  89324-4 0  9995","line2":"2 11267  82.5214  75.3474 0015636 348.7501  11.3367 14.91938565532114","category":"Other"},{"name":"SL-8 R/B","line1":"1 03230U 68040B   26090.93653005  .00004256  00000+0  31397-3 0  9996","line2":"2 03230  74.0288 268.2281 0023332  83.0337 277.3504 15.03411344 93359","category":"Other"},{"name":"SL-3 R/B","line1":"1 10114U 77057B   26091.18133461  .00014132  00000+0  28978-3 0  9995","line2":"2 10114  97.5795 264.1073 0006958 193.0531 167.0539 15.46147760671808","category":"Other"},{"name":"SERT 2","line1":"1 04327U 70009A   26091.07379289  .00000004  00000+0  61283-4 0  9992","line2":"2 04327  99.2790  32.9460 0005705 104.4724 266.6509 13.58731915782933","category":"Other"},{"name":"OAO 3 (COPERNICUS)","line1":"1 06153U 72065A   26091.22914562  .00000357  00000+0  77587-4 0  9996","line2":"2 06153  35.0046 168.8953 0006876 340.2128  49.3101 14.60015778849493","category":"Other"},{"name":"ATLAS CENTAUR R/B","line1":"1 06155U 72065B   26090.92232759  .00001728  00000+0  23785-3 0  9998","line2":"2 06155  35.0007 175.4540 0033665 198.4007 161.5477 14.77752120844555","category":"Other"},{"name":"SEASAT 1","line1":"1 10967U 78064A   26091.18446052  .00000294  00000+0  12049-3 0  9999","line2":"2 10967 108.0070 172.6982 0002690 274.6274  85.4565 14.46178850509769","category":"Other"},{"name":"OAO 2","line1":"1 03597U 68110A   26091.13495535  .00000323  00000+0  92037-4 0  9995","line2":"2 03597  34.9922 139.9017 0005450  11.7075 348.3741 14.47320707 22357","category":"Other"},{"name":"SL-8 R/B","line1":"1 02802U 67045B   26091.06555624  .00000365  00000+0  10854-3 0  9999","line2":"2 02802  74.0107 306.3017 0064973 307.6419  51.8853 14.45640117 92253","category":"Other"},{"name":"SL-8 R/B","line1":"1 05730U 71119B   26091.19677617  .00006776  00000+0  35506-3 0  9993","line2":"2 05730  73.8850 133.6366 0546251  95.4988 270.8699 14.38282564658724","category":"Other"},{"name":"ATLAS CENTAUR 2","line1":"1 00694U 63047A   26091.16697332  .00002806  00000+0  32925-3 0  9993","line2":"2 00694  30.3579  70.0171 0547357 278.3926  75.5014 14.12162045134806","category":"Other"},{"name":"THOR AGENA D R/B","line1":"1 00733U 64002A   26090.98914574  .00000263  00000+0  11094-3 0  9997","line2":"2 00733  99.1211 105.5416 0032721 191.8605 168.1810 14.34032111241490","category":"Other"},{"name":"SL-8 R/B","line1":"1 08459U 75112B   26091.10974178  .00000280  00000+0  10066-3 0  9992","line2":"2 08459  74.0626 337.6728 0014617  61.7232 298.5395 14.38216594635096","category":"Other"}]}